{"type": "FeatureCollection", "features": [ {"type": "Feature", "properties": {"norad_id": 66645, "name": "SHENZHOU-22", "group": "last-30-days", "lat": -17.574610983970107, "lon": 146.86596581638688, "alt_km": 388.76197014780064, "timestamp": "2025-12-24T09:46:29.714079+00:00", "meta": {"OBJECT_NAME": "SHENZHOU-22", "OBJECT_ID": "2025-272A", "EPOCH": "2025-12-23T22:08:03.098976", "MEAN_MOTION": 15.5961343, "ECCENTRICITY": 0.00080636, "INCLINATION": 41.4684, "RA_OF_ASC_NODE": 308.7959, "ARG_OF_PERICENTER": 129.7983, "MEAN_ANOMALY": 230.3567, "EPHEMERIS_TYPE": 0, "CLASSIFICATION_TYPE": "U", "NORAD_CAT_ID": 66645, "ELEMENT_SET_NO": 999, "REV_AT_EPOCH": 26550, "BSTAR": 0.00017429265, "MEAN_MOTION_DOT": 0.0001399, "MEAN_MOTION_DDOT": 0}, "tle": {"line1": "1 66645U 25272A   25357.92225809  .00013990  00000+0  17429-3 0  9991", "line2": "2 66645  41.4684 308.7959 0008063 129.7983 230.3567 15.59613430265504"}}, "geometry": {"type": "Point", "coordinates": [146.86596581638688, -17.574610983970107]}}, {"type": "Feature", "properties": {"norad_id": 66647, "name": "COSMOS 2597 (RODNIK-S 22)", "group": "last-30-days", "lat": 48.8692337290119, "lon": -72.11966406104607, "alt_km": 1499.0411051572528, "timestamp": "2025-12-24T09:46:29.714090+00:00", "meta": {"OBJECT_NAME": "COSMOS 2597 (RODNIK-S 22)", "OBJECT_ID": "2025-273A", "EPOCH": "2025-12-24T03:42:33.321312", "MEAN_MOTION": 12.41952205, "ECCENTRICITY": 0.00076, "INCLINATION": 82.4994, "RA_OF_ASC_NODE": 279.3613, "ARG_OF_PERICENTER": 259.3113, "MEAN_ANOMALY": 100.711, "EPHEMERIS_TYPE": 0, "CLASSIFICATION_TYPE": "U", "NORAD_CAT_ID": 66647, "ELEMENT_SET_NO": 999, "REV_AT_EPOCH": 355, "BSTAR": 0.00024874, "MEAN_MOTION_DOT": 4.4e-07, "MEAN_MOTION_DDOT": 0}, "tle": {"line1": "1 66647U 25273A   25358.15455233  .00000044  00000+0  24874-3 0  9994", "line2": "2 66647  82.4994 279.3613 0007600 259.3113 100.7110 12.41952205  3559"}}, "geometry": {"type": "Point", "coordinates": [-72.11966406104607, 48.8692337290119]}}, {"type": "Feature", "properties": {"norad_id": 66648, "name": "COSMOS 2598 (RODNIK-S 23)", "group": "last-30-days", "lat": 40.65148992792594, "lon": 92.6998001539115, "alt_km": 1487.3853600364237, "timestamp": "2025-12-24T09:46:29.714101+00:00", "meta": {"OBJECT_NAME": "COSMOS 2598 (RODNIK-S 23)", "OBJECT_ID": "2025-273B", "EPOCH": "2025-12-24T03:14:08.513664", "MEAN_MOTION": 12.432336, "ECCENTRICITY": 0.0008174, "INCLINATION": 82.5033, "RA_OF_ASC_NODE": 279.3607, "ARG_OF_PERICENTER": 209.6665, "MEAN_ANOMALY": 150.3953, "EPHEMERIS_TYPE": 0, "CLASSIFICATION_TYPE": "U", "NORAD_CAT_ID": 66648, "ELEMENT_SET_NO": 999, "REV_AT_EPOCH": 355, "BSTAR": 0.00018419, "MEAN_MOTION_DOT": 3.6e-07, "MEAN_MOTION_DDOT": 0}, "tle": {"line1": "1 66648U 25273B   25358.13482076  .00000036  00000+0  18419-3 0  9997", "line2": "2 66648  82.5033 279.3607 0008174 209.6665 150.3953 12.43233600  3554"}}, "geometry": {"type": "Point", "coordinates": [92.6998001539115, 40.65148992792594]}}, {"type": "Feature", "properties": {"norad_id": 66649, "name": "COSMOS 2599 (RODNIK-S 24)", "group": "last-30-days", "lat": -2.794248566686878, "lon": -81.12959689510959, "alt_km": 1506.511200869587, "timestamp": "2025-12-24T09:46:29.714112+00:00", "meta": {"OBJECT_NAME": "COSMOS 2599 (RODNIK-S 24)", "OBJECT_ID": "2025-273C", "EPOCH": "2025-12-24T02:03:05.599872", "MEAN_MOTION": 12.41152116, "ECCENTRICITY": 0.0006341, "INCLINATION": 82.5051, "RA_OF_ASC_NODE": 279.4378, "ARG_OF_PERICENTER": 247.6642, "MEAN_ANOMALY": 112.3765, "EPHEMERIS_TYPE": 0, "CLASSIFICATION_TYPE": "U", "NORAD_CAT_ID": 66649, "ELEMENT_SET_NO": 999, "REV_AT_EPOCH": 354, "BSTAR": 0.00057744, "MEAN_MOTION_DOT": 8.8e-07, "MEAN_MOTION_DDOT": 0}, "tle": {"line1": "1 66649U 25273C   25358.08548148  .00000088  00000+0  57744-3 0  9996", "line2": "2 66649  82.5051 279.4378 0006341 247.6642 112.3765 12.41152116  3540"}}, "geometry": {"type": "Point", "coordinates": [-81.12959689510959, -2.794248566686878]}}, {"type": "Feature", "properties": {"norad_id": 66650, "name": "BEE-1000", "group": "last-30-days", "lat": -82.13240341671523, "lon": 25.54271536042504, "alt_km": 596.1541692121291, "timestamp": "2025-12-24T09:46:29.714122+00:00", "meta": {"OBJECT_NAME": "BEE-1000", "OBJECT_ID": "2025-274A", "EPOCH": "2025-12-23T14:51:55.927584", "MEAN_MOTION": 14.91696027, "ECCENTRICITY": 0.00109862, "INCLINATION": 97.7405, "RA_OF_ASC_NODE": 284.6079, "ARG_OF_PERICENTER": 211.3109, "MEAN_ANOMALY": 148.7457, "EPHEMERIS_TYPE": 0, "CLASSIFICATION_TYPE": "U", "NORAD_CAT_ID": 66650, "ELEMENT_SET_NO": 999, "REV_AT_EPOCH": 402, "BSTAR": 0.00016788054, "MEAN_MOTION_DOT": 1.634e-05, "MEAN_MOTION_DDOT": 0}, "tle": {"line1": "1 66650U 25274A   25357.61939731  .00001634  00000+0  16788-3 0  9990", "line2": "2 66650  97.7405 284.6079 0010986 211.3109 148.7457 14.91696027  4021"}}, "geometry": {"type": "Point", "coordinates": [25.54271536042504, -82.13240341671523]}}, {"type": "Feature", "properties": {"norad_id": 66651, "name": "2025-274B", "group": "last-30-days", "lat": -77.22163279848033, "lon": -37.7664081386114, "alt_km": 597.1562752389918, "timestamp": "2025-12-24T09:46:29.714132+00:00", "meta": {"OBJECT_NAME": "2025-274B", "OBJECT_ID": "2025-274B", "EPOCH": "2025-12-24T02:05:02.226048", "MEAN_MOTION": 14.91875807, "ECCENTRICITY": 0.0011252, "INCLINATION": 97.7402, "RA_OF_ASC_NODE": 285.0699, "ARG_OF_PERICENTER": 207.9905, "MEAN_ANOMALY": 152.071, "EPHEMERIS_TYPE": 0, "CLASSIFICATION_TYPE": "U", "NORAD_CAT_ID": 66651, "ELEMENT_SET_NO": 999, "REV_AT_EPOCH": 409, "BSTAR": 0.00043321, "MEAN_MOTION_DOT": 4.327e-05, "MEAN_MOTION_DDOT": 0}, "tle": {"line1": "1 66651U 25274B   25358.08683132  .00004327  00000+0  43321-3 0  9999", "line2": "2 66651  97.7402 285.0699 0011252 207.9905 152.0710 14.91875807  4096"}}, "geometry": {"type": "Point", "coordinates": [-37.7664081386114, -77.22163279848033]}}, {"type": "Feature", "properties": {"norad_id": 66652, "name": "2025-274C", "group": "last-30-days", "lat": -66.8935887810015, "lon": -56.018838173221184, "alt_km": 597.4957340968249, "timestamp": "2025-12-24T09:46:29.714142+00:00", "meta": {"OBJECT_NAME": "2025-274C", "OBJECT_ID": "2025-274C", "EPOCH": "2025-12-23T14:45:53.477856", "MEAN_MOTION": 14.91960147, "ECCENTRICITY": 0.00107697, "INCLINATION": 97.7406, "RA_OF_ASC_NODE": 284.6132, "ARG_OF_PERICENTER": 216.5181, "MEAN_ANOMALY": 143.5304, "EPHEMERIS_TYPE": 0, "CLASSIFICATION_TYPE": "U", "NORAD_CAT_ID": 66652, "ELEMENT_SET_NO": 999, "REV_AT_EPOCH": 402, "BSTAR": 0.00034346641, "MEAN_MOTION_DOT": 3.426e-05, "MEAN_MOTION_DDOT": 0}, "tle": {"line1": "1 66652U 25274C   25357.61520229  .00003426  00000+0  34347-3 0  9992", "line2": "2 66652  97.7406 284.6132 0010769 216.5181 143.5304 14.91960147  4021"}}, "geometry": {"type": "Point", "coordinates": [-56.018838173221184, -66.8935887810015]}}, {"type": "Feature", "properties": {"norad_id": 66653, "name": "2025-274D", "group": "last-30-days", "lat": -66.51651409512864, "lon": -56.3651454773571, "alt_km": 597.9257830661281, "timestamp": "2025-12-24T09:46:29.714152+00:00", "meta": {"OBJECT_NAME": "2025-274D", "OBJECT_ID": "2025-274D", "EPOCH": "2025-12-23T17:58:56.200512", "MEAN_MOTION": 14.91954613, "ECCENTRICITY": 0.00117522, "INCLINATION": 97.7405, "RA_OF_ASC_NODE": 284.7445, "ARG_OF_PERICENTER": 212.5303, "MEAN_ANOMALY": 147.5192, "EPHEMERIS_TYPE": 0, "CLASSIFICATION_TYPE": "U", "NORAD_CAT_ID": 66653, "ELEMENT_SET_NO": 999, "REV_AT_EPOCH": 404, "BSTAR": 0.00027090221, "MEAN_MOTION_DOT": 2.69e-05, "MEAN_MOTION_DDOT": 0}, "tle": {"line1": "1 66653U 25274D   25357.74926158  .00002690  00000+0  27090-3 0  9997", "line2": "2 66653  97.7405 284.7445 0011752 212.5303 147.5192 14.91954613  4046"}}, "geometry": {"type": "Point", "coordinates": [-56.3651454773571, -66.51651409512864]}}, {"type": "Feature", "properties": {"norad_id": 66654, "name": "JACK E", "group": "last-30-days", "lat": -49.90366536326421, "lon": -65.30404175622671, "alt_km": 599.2571127232068, "timestamp": "2025-12-24T09:46:29.714164+00:00", "meta": {"OBJECT_NAME": "JACK E", "OBJECT_ID": "2025-274E", "EPOCH": "2025-12-23T14:41:17.496384", "MEAN_MOTION": 14.92137123, "ECCENTRICITY": 0.00122814, "INCLINATION": 97.7407, "RA_OF_ASC_NODE": 284.6177, "ARG_OF_PERICENTER": 214.8879, "MEAN_ANOMALY": 145.1536, "EPHEMERIS_TYPE": 0, "CLASSIFICATION_TYPE": "U", "NORAD_CAT_ID": 66654, "ELEMENT_SET_NO": 999, "REV_AT_EPOCH": 402, "BSTAR": 0.00030019774, "MEAN_MOTION_DOT": 3.001e-05, "MEAN_MOTION_DDOT": 0}, "tle": {"line1": "1 66654U 25274E   25357.61200806  .00003001  00000+0  30020-3 0  9993", "line2": "2 66654  97.7407 284.6177 0012281 214.8879 145.1536 14.92137123  4025"}}, "geometry": {"type": "Point", "coordinates": [-65.30404175622671, -49.90366536326421]}}, {"type": "Feature", "properties": {"norad_id": 66655, "name": "2025-274F", "group": "last-30-days", "lat": -81.63114946315487, "lon": -7.129315687540106, "alt_km": 600.5266627697401, "timestamp": "2025-12-24T09:46:29.714174+00:00", "meta": {"OBJECT_NAME": "2025-274F", "OBJECT_ID": "2025-274F", "EPOCH": "2025-12-23T18:03:32.512032", "MEAN_MOTION": 14.91192024, "ECCENTRICITY": 0.0004467, "INCLINATION": 97.7344, "RA_OF_ASC_NODE": 284.7333, "ARG_OF_PERICENTER": 345.6891, "MEAN_ANOMALY": 14.42, "EPHEMERIS_TYPE": 0, "CLASSIFICATION_TYPE": "U", "NORAD_CAT_ID": 66655, "ELEMENT_SET_NO": 999, "REV_AT_EPOCH": 404, "BSTAR": 2.104e-05, "MEAN_MOTION_DOT": 1.54e-06, "MEAN_MOTION_DDOT": 0}, "tle": {"line1": "1 66655U 25274F   25357.75245963  .00000154  00000+0  21040-4 0  9991", "line2": "2 66655  97.7344 284.7333 0004467 345.6891  14.4200 14.91192024  4043"}}, "geometry": {"type": "Point", "coordinates": [-7.129315687540106, -81.63114946315487]}}]}